{
  "norad_id": 64323,
  "name": "STARLINK-11728 [DTC]",
  "history": [
    {
      "epoch": "2026-03-28T20:38:41.753472Z",
      "apogee_km": 357.7839333094025,
      "perigee_km": 355.27634734637286,
      "latitude_deg": 1.1049159367155439e-05,
      "longitude_deg": 137.33324586141123,
      "height_km": 355.9492209008879,
      "semi_major_axis_km": 6734.667140327887,
      "eccentricity": 0.00018617,
      "inclination_deg": 42.9997,
      "raan_deg": 273.2818,
      "arg_perigee_deg": 286.3856,
      "mean_anomaly_deg": 73.6807,
      "mean_motion_rev_day": 15.70827727
    },
    {
      "epoch": "2026-03-28T22:10:15.341088Z",
      "apogee_km": 357.76261142332623,
      "perigee_km": 355.19941580734394,
      "latitude_deg": 5.860232870347612e-05,
      "longitude_deg": 113.99827769257354,
      "height_km": 355.85733275433535,
      "semi_major_axis_km": 6734.618013615334,
      "eccentricity": 0.0001903,
      "inclination_deg": 43.0001,
      "raan_deg": 272.8994,
      "arg_perigee_deg": 288.0228,
      "mean_anomaly_deg": 72.0433,
      "mean_motion_rev_day": 15.70844915
    }
  ]
}